{"type": "FeatureCollection", "features": [ {"type": "Feature", "properties": {"norad_id": 17070, "name": "POLAR BEAR", "group": "nnss", "lat": -22.154782567826405, "lon": -176.67097740462305, "alt_km": 1001.4640033101332, "timestamp": "2025-12-19T22:41:52.660367+00:00", "meta": {"OBJECT_NAME": "POLAR BEAR", "OBJECT_ID": "1986-088A", "EPOCH": "2025-12-19T10:53:24.401760", "MEAN_MOTION": 13.75252169, "ECCENTRICITY": 0.00412501, "INCLINATION": 89.617, "RA_OF_ASC_NODE": 183.5049, "ARG_OF_PERICENTER": 99.9087, "MEAN_ANOMALY": 324.1249, "EPHEMERIS_TYPE": 0, "CLASSIFICATION_TYPE": "U", "NORAD_CAT_ID": 17070, "ELEMENT_SET_NO": 999, "REV_AT_EPOCH": 96071, "BSTAR": 9.9748716e-05, "MEAN_MOTION_DOT": 1.08e-06, "MEAN_MOTION_DDOT": 0}, "tle": {"line1": "1 17070U 86088A   25353.45375465  .00000108  00000+0  99749-4 0  9992", "line2": "2 17070  89.6170 183.5049 0041250  99.9087 324.1249 13.75252169960711"}}, "geometry": {"type": "Point", "coordinates": [-176.67097740462305, -22.154782567826405]}}, {"type": "Feature", "properties": {"norad_id": 18361, "name": "OSCAR 27", "group": "nnss", "lat": 10.813685192418301, "lon": -100.38657927359371, "alt_km": 1028.1190424376227, "timestamp": "2025-12-19T22:41:52.660377+00:00", "meta": {"OBJECT_NAME": "OSCAR 27", "OBJECT_ID": "1987-080A", "EPOCH": "2025-12-19T12:55:35.147136", "MEAN_MOTION": 13.44908026, "ECCENTRICITY": 0.010346, "INCLINATION": 90.3741, "RA_OF_ASC_NODE": 79.5267, "ARG_OF_PERICENTER": 204.1781, "MEAN_ANOMALY": 155.4493, "EPHEMERIS_TYPE": 0, "CLASSIFICATION_TYPE": "U", "NORAD_CAT_ID": 18361, "ELEMENT_SET_NO": 999, "REV_AT_EPOCH": 87648, "BSTAR": 0.00015116, "MEAN_MOTION_DOT": 1e-06, "MEAN_MOTION_DDOT": 0}, "tle": {"line1": "1 18361U 87080A   25353.53860124  .00000100  00000+0  15116-3 0  9996", "line2": "2 18361  90.3741  79.5267 0103460 204.1781 155.4493 13.44908026876489"}}, "geometry": {"type": "Point", "coordinates": [-100.38657927359371, 10.813685192418301]}}, {"type": "Feature", "properties": {"norad_id": 18362, "name": "OSCAR 29", "group": "nnss", "lat": 10.837860467863694, "lon": -99.92685191019629, "alt_km": 1051.4123504838672, "timestamp": "2025-12-19T22:41:52.660388+00:00", "meta": {"OBJECT_NAME": "OSCAR 29", "OBJECT_ID": "1987-080B", "EPOCH": "2025-12-19T12:58:39.035712", "MEAN_MOTION": 13.44449557, "ECCENTRICITY": 0.010432, "INCLINATION": 90.3752, "RA_OF_ASC_NODE": 79.9861, "ARG_OF_PERICENTER": 227.4328, "MEAN_ANOMALY": 143.48, "EPHEMERIS_TYPE": 0, "CLASSIFICATION_TYPE": "U", "NORAD_CAT_ID": 18362, "ELEMENT_SET_NO": 999, "REV_AT_EPOCH": 87601, "BSTAR": 0.00013403, "MEAN_MOTION_DOT": 8.8e-07, "MEAN_MOTION_DDOT": 0}, "tle": {"line1": "1 18362U 87080B   25353.54072958  .00000088  00000+0  13403-3 0  9990", "line2": "2 18362  90.3752  79.9861 0104320 227.4328 143.4800 13.44449557876014"}}, "geometry": {"type": "Point", "coordinates": [-99.92685191019629, 10.837860467863694]}}, {"type": "Feature", "properties": {"norad_id": 19070, "name": "OSCAR 23", "group": "nnss", "lat": -55.94670832945128, "lon": -163.85869450476267, "alt_km": 1124.9634878105726, "timestamp": "2025-12-19T22:41:52.660398+00:00", "meta": {"OBJECT_NAME": "OSCAR 23", "OBJECT_ID": "1988-033A", "EPOCH": "2025-12-19T08:55:44.598144", "MEAN_MOTION": 13.27788274, "ECCENTRICITY": 0.0190075, "INCLINATION": 90.3206, "RA_OF_ASC_NODE": 16.5981, "ARG_OF_PERICENTER": 161.505, "MEAN_ANOMALY": 211.5355, "EPHEMERIS_TYPE": 0, "CLASSIFICATION_TYPE": "U", "NORAD_CAT_ID": 19070, "ELEMENT_SET_NO": 999, "REV_AT_EPOCH": 82341, "BSTAR": 0.00020498, "MEAN_MOTION_DOT": 1.11e-06, "MEAN_MOTION_DDOT": 0}, "tle": {"line1": "1 19070U 88033A   25353.37204396  .00000111  00000+0  20498-3 0  9999", "line2": "2 19070  90.3206  16.5981 0190075 161.5050 211.5355 13.27788274823418"}}, "geometry": {"type": "Point", "coordinates": [-163.85869450476267, -55.94670832945128]}}, {"type": "Feature", "properties": {"norad_id": 19071, "name": "OSCAR 32", "group": "nnss", "lat": -12.482368042089838, "lon": 16.81955102047197, "alt_km": 1291.5323226109222, "timestamp": "2025-12-19T22:41:52.660409+00:00", "meta": {"OBJECT_NAME": "OSCAR 32", "OBJECT_ID": "1988-033B", "EPOCH": "2025-12-19T03:11:49.262784", "MEAN_MOTION": 13.27954999, "ECCENTRICITY": 0.01888457, "INCLINATION": 90.3211, "RA_OF_ASC_NODE": 16.7231, "ARG_OF_PERICENTER": 149.0701, "MEAN_ANOMALY": 277.1442, "EPHEMERIS_TYPE": 0, "CLASSIFICATION_TYPE": "U", "NORAD_CAT_ID": 19071, "ELEMENT_SET_NO": 999, "REV_AT_EPOCH": 82350, "BSTAR": 0.0001634943, "MEAN_MOTION_DOT": 9.1e-07, "MEAN_MOTION_DDOT": 0}, "tle": {"line1": "1 19071U 88033B   25353.13320906  .00000091  00000+0  16349-3 0  9997", "line2": "2 19071  90.3211  16.7231 0188845 149.0701 277.1442 13.27954999823505"}}, "geometry": {"type": "Point", "coordinates": [16.81955102047197, -12.482368042089838]}}, {"type": "Feature", "properties": {"norad_id": 19223, "name": "NOVA 2", "group": "nnss", "lat": 55.877939679559745, "lon": 78.28274476841204, "alt_km": 1156.4740011822178, "timestamp": "2025-12-19T22:41:52.660419+00:00", "meta": {"OBJECT_NAME": "NOVA 2", "OBJECT_ID": "1988-052A", "EPOCH": "2025-12-19T06:21:05.310720", "MEAN_MOTION": 13.22936436, "ECCENTRICITY": 0.0030033, "INCLINATION": 89.987, "RA_OF_ASC_NODE": 78.2644, "ARG_OF_PERICENTER": 358.9404, "MEAN_ANOMALY": 54.7754, "EPHEMERIS_TYPE": 0, "CLASSIFICATION_TYPE": "U", "NORAD_CAT_ID": 19223, "ELEMENT_SET_NO": 999, "REV_AT_EPOCH": 81034, "BSTAR": 0.00011474, "MEAN_MOTION_DOT": 5.7e-07, "MEAN_MOTION_DDOT": 0}, "tle": {"line1": "1 19223U 88052A   25353.26464480  .00000057  00000+0  11474-3 0  9993", "line2": "2 19223  89.9870  78.2644 0030033 358.9404  54.7754 13.22936436810340"}}, "geometry": {"type": "Point", "coordinates": [78.28274476841204, 55.877939679559745]}}, {"type": "Feature", "properties": {"norad_id": 19419, "name": "OSCAR 25", "group": "nnss", "lat": -77.24355793008382, "lon": 20.418047706203133, "alt_km": 1068.698429633654, "timestamp": "2025-12-19T22:41:52.660430+00:00", "meta": {"OBJECT_NAME": "OSCAR 25", "OBJECT_ID": "1988-074A", "EPOCH": "2025-12-19T12:55:12.112032", "MEAN_MOTION": 13.42624577, "ECCENTRICITY": 0.0094805, "INCLINATION": 90.034, "RA_OF_ASC_NODE": 20.2664, "ARG_OF_PERICENTER": 226.1492, "MEAN_ANOMALY": 247.6687, "EPHEMERIS_TYPE": 0, "CLASSIFICATION_TYPE": "U", "NORAD_CAT_ID": 19419, "ELEMENT_SET_NO": 999, "REV_AT_EPOCH": 82731, "BSTAR": 0.00015262, "MEAN_MOTION_DOT": 9.7e-07, "MEAN_MOTION_DDOT": 0}, "tle": {"line1": "1 19419U 88074A   25353.53833463  .00000097  00000+0  15262-3 0  9998", "line2": "2 19419  90.0340  20.2664 0094805 226.1492 247.6687 13.42624577827316"}}, "geometry": {"type": "Point", "coordinates": [20.418047706203133, -77.24355793008382]}}, {"type": "Feature", "properties": {"norad_id": 19420, "name": "OSCAR 31", "group": "nnss", "lat": 16.132762405000694, "lon": -159.37078484193776, "alt_km": 1060.2845958258995, "timestamp": "2025-12-19T22:41:52.660441+00:00", "meta": {"OBJECT_NAME": "OSCAR 31", "OBJECT_ID": "1988-074B", "EPOCH": "2025-12-19T04:19:51.591936", "MEAN_MOTION": 13.42585711, "ECCENTRICITY": 0.0093141, "INCLINATION": 90.0356, "RA_OF_ASC_NODE": 20.6162, "ARG_OF_PERICENTER": 221.3224, "MEAN_ANOMALY": 206.6129, "EPHEMERIS_TYPE": 0, "CLASSIFICATION_TYPE": "U", "NORAD_CAT_ID": 19420, "ELEMENT_SET_NO": 999, "REV_AT_EPOCH": 82737, "BSTAR": 0.00015294, "MEAN_MOTION_DOT": 9.7e-07, "MEAN_MOTION_DDOT": 0}, "tle": {"line1": "1 19420U 88074B   25353.18045824  .00000097  00000+0  15294-3 0  9992", "line2": "2 19420  90.0356  20.6162 0093141 221.3224 206.6129 13.42585711827372"}}, "geometry": {"type": "Point", "coordinates": [-159.37078484193776, 16.132762405000694]}}]}